OBJECT_NAME,OBJECT_ID,EPOCH,MEAN_MOTION,ECCENTRICITY,INCLINATION,RA_OF_ASC_NODE,ARG_OF_PERICENTER,MEAN_ANOMALY,EPHEMERIS_TYPE,CLASSIFICATION_TYPE,NORAD_CAT_ID,ELEMENT_SET_NO,REV_AT_EPOCH,BSTAR,MEAN_MOTION_DOT,MEAN_MOTION_DDOT
SAR-LUPE 2,2007-030A,2026-07-23T13:36:49.006368,15.55121804,.00058926,98.1059,313.6632,222.7725,137.3069,0,U,31797,999,6258,.63576422E-3,.42898E-3,0
SAPPHIRE,2013-009C,2026-07-23T13:16:15.769056,14.35249317,.00120393,98.4281,23.1487,136.4478,223.7661,0,U,39088,999,70179,.48542148E-4,.96E-6,0
PRAETORIAN SDA_602,2025-203A,2026-07-23T07:34:54.288768,13.83888949,.00071483,81.3052,337.3201,99.1830,261.0136,0,U,65565,999,4369,.663621E-4,.86E-6,0
PRAETORIAN SDA_603,2025-203B,2026-07-23T08:15:00.883008,13.83962424,.00107897,81.3059,337.2154,94.8526,265.3862,0,U,65566,999,4370,.97346788E-4,.12E-5,0
PRAETORIAN SDA_604,2025-203C,2026-07-23T09:16:50.122272,13.83051396,.00066763,81.3075,337.6446,103.1117,257.0784,0,U,65567,999,4368,.87356151E-4,.107E-5,0
PRAETORIAN SDA_605,2025-203D,2026-07-23T08:17:30.475968,13.83201443,.00093604,81.3040,337.3185,93.9426,266.2801,0,U,65568,999,4369,.91494508E-4,.112E-5,0
PRAETORIAN SDA_606,2025-203E,2026-07-23T14:52:48.855360,13.83200680,.00072241,81.3077,337.3061,97.0052,263.1925,0,U,65569,999,4372,.46164579E-4,.63E-6,0
PRAETORIAN SDA_607,2025-203F,2026-07-23T07:37:33.192192,13.83759288,.00100554,81.3062,337.1972,95.1072,265.1232,0,U,65570,999,4370,.11013437E-3,.134E-5,0
PRAETORIAN SDA_608,2025-203G,2026-07-23T08:55:59.265408,13.83820703,.00071582,81.3028,337.3068,101.4808,258.7153,0,U,65571,999,4369,.84740037E-4,.106E-5,0
PRAETORIAN SDA_609,2025-203H,2026-07-23T08:48:18.323136,13.84212885,.00080517,81.3070,337.2882,96.3489,263.8585,0,U,65572,999,4370,.15866566E-3,.189E-5,0
PRAETORIAN SDA_610,2025-203J,2026-07-23T08:32:23.812224,13.83529456,.00078787,81.3032,337.2889,100.8739,259.3304,0,U,65573,999,4369,.79416198E-4,.99E-6,0
PRAETORIAN SDA_611,2025-203K,2026-07-23T08:47:04.623072,13.83311383,.00068179,81.3029,337.4648,105.2621,254.9289,0,U,65574,999,4368,-.89805E-6,.11E-6,0
PRAETORIAN SDA_612,2025-203L,2026-07-23T14:23:12.324480,13.85042241,.00103954,81.3052,336.7460,94.5098,265.7247,0,U,65575,999,4375,.12217013E-3,.15E-5,0
PRAETORIAN SDA_613,2025-203M,2026-07-23T07:33:03.407328,13.82768742,.00068301,81.3021,337.5373,96.7254,263.4680,0,U,65576,999,4367,.71789015E-4,.9E-6,0
PRAETORIAN SDA_614,2025-203N,2026-07-23T09:05:23.829792,13.84779282,.00082727,81.3036,337.0372,94.1525,266.0578,0,U,65577,999,4372,.43615877E-4,.61E-6,0
PRAETORIAN SDA_615,2025-203P,2026-07-23T08:44:55.956192,13.84439443,.00102022,81.3046,337.0369,94.1091,266.1232,0,U,65578,999,4371,.12369859E-3,.15E-5,0
PRAETORIAN SDA_616,2025-203Q,2026-07-23T08:47:29.583168,13.83271141,.00066877,81.3085,337.6338,103.5190,256.6712,0,U,65579,999,4368,.12294865E-3,.147E-5,0
PRAETORIAN SDA_617,2025-203R,2026-07-23T07:38:52.750176,13.83152859,.00085456,81.3059,337.5057,94.5675,265.6458,0,U,65580,999,4368,.4272054E-4,.59E-6,0
PRAETORIAN SDA_618,2025-203S,2026-07-23T07:59:43.137024,13.84226547,.00109519,81.3043,337.0008,97.1040,263.1363,0,U,65581,999,4371,.10973961E-3,.134E-5,0
PRAETORIAN SDA_619,2025-203T,2026-07-23T14:23:53.459520,13.83806939,.00093465,81.3066,337.0898,94.4135,265.8090,0,U,65582,999,4436,.11520478E-3,.14E-5,0
PRAETORIAN SDA_620,2025-203U,2026-07-23T08:23:00.828960,13.83208757,.00086604,81.3051,337.3598,92.5802,267.6346,0,U,65583,999,4369,.14984584E-3,.176E-5,0
PRAETORIAN SDA_621,2025-203V,2026-07-23T14:26:33.135360,13.83804888,.0008512,81.3043,337.0179,89.2208,270.9924,0,U,65584,999,4373,.62841826E-4,.82E-6,0
PRAETORIAN SDA_601,2025-203W,2026-07-23T08:55:46.284672,13.83171634,.00067602,81.3058,337.5683,106.2598,253.9303,0,U,65585,999,4368,.2013836E-3,.232E-5,0
VICTUS HAZE PUMA,2026-142A,2026-07-23T06:30:16.482240,15.21162456,.00265943,97.4452,101.4820,237.1743,122.6931,0,U,69646,999,515,.19058894E-3,.4214E-4,0
