SAR-LUPE 2              
1 31797U 07030A   26204.56723387  .00042898  00000+0  63576-3 0  9992
2 31797  98.1059 313.6632 0005892 222.7725 137.3069 15.55121804 62588
SAPPHIRE                
1 39088U 13009C   26204.55296029  .00000096  00000+0  48542-4 0  9994
2 39088  98.4281  23.1487 0012039 136.4478 223.7661 14.35249317701795
PRAETORIAN SDA_602      
1 65565U 25203A   26204.31590612  .00000086  00000+0  66362-4 0  9990
2 65565  81.3052 337.3201 0007148  99.1830 261.0136 13.83888949 43699
PRAETORIAN SDA_603      
1 65566U 25203B   26204.34376022  .00000120  00000+0  97347-4 0  9997
2 65566  81.3059 337.2154 0010789  94.8526 265.3862 13.83962424 43708
PRAETORIAN SDA_604      
1 65567U 25203C   26204.38669123  .00000107  00000+0  87356-4 0  9993
2 65567  81.3075 337.6446 0006676 103.1117 257.0784 13.83051396 43680
PRAETORIAN SDA_605      
1 65568U 25203D   26204.34549162  .00000112  00000+0  91495-4 0  9995
2 65568  81.3040 337.3185 0009360  93.9426 266.2801 13.83201443 43695
PRAETORIAN SDA_606      
1 65569U 25203E   26204.62000990  .00000063  00000+0  46165-4 0  9997
2 65569  81.3077 337.3061 0007224  97.0052 263.1925 13.83200680 43725
PRAETORIAN SDA_607      
1 65570U 25203F   26204.31774528  .00000134  00000+0  11013-3 0  9992
2 65570  81.3062 337.1972 0010055  95.1072 265.1232 13.83759288 43701
PRAETORIAN SDA_608      
1 65571U 25203G   26204.37221372  .00000106  00000+0  84740-4 0  9990
2 65571  81.3028 337.3068 0007158 101.4808 258.7153 13.83820703 43699
PRAETORIAN SDA_609      
1 65572U 25203H   26204.36687874  .00000189  00000+0  15867-3 0  9997
2 65572  81.3070 337.2882 0008051  96.3489 263.8585 13.84212885 43705
PRAETORIAN SDA_610      
1 65573U 25203J   26204.35583116  .00000099  00000+0  79416-4 0  9992
2 65573  81.3032 337.2889 0007878 100.8739 259.3304 13.83529456 43697
PRAETORIAN SDA_611      
1 65574U 25203K   26204.36602573  .00000011  00000+0 -89805-6 0  9993
2 65574  81.3029 337.4648 0006817 105.2621 254.9289 13.83311383 43680
PRAETORIAN SDA_612      
1 65575U 25203L   26204.59944820  .00000150  00000+0  12217-3 0  9996
2 65575  81.3052 336.7460 0010395  94.5098 265.7247 13.85042241 43753
PRAETORIAN SDA_613      
1 65576U 25203M   26204.31462277  .00000090  00000+0  71789-4 0  9991
2 65576  81.3021 337.5373 0006830  96.7254 263.4680 13.82768742 43674
PRAETORIAN SDA_614      
1 65577U 25203N   26204.37874803  .00000061  00000+0  43616-4 0  9996
2 65577  81.3036 337.0372 0008272  94.1525 266.0578 13.84779282 43724
PRAETORIAN SDA_615      
1 65578U 25203P   26204.36453653  .00000150  00000+0  12370-3 0  9993
2 65578  81.3046 337.0369 0010202  94.1091 266.1232 13.84439443 43715
PRAETORIAN SDA_616      
1 65579U 25203Q   26204.36631462  .00000147  00000+0  12295-3 0  9992
2 65579  81.3085 337.6338 0006687 103.5190 256.6712 13.83271141 43689
PRAETORIAN SDA_617      
1 65580U 25203R   26204.31866609  .00000059  00000+0  42721-4 0  9992
2 65580  81.3059 337.5057 0008545  94.5675 265.6458 13.83152859 43682
PRAETORIAN SDA_618      
1 65581U 25203S   26204.33313816  .00000134  00000+0  10974-3 0  9990
2 65581  81.3043 337.0008 0010951  97.1040 263.1363 13.84226547 43715
PRAETORIAN SDA_619      
1 65582U 25203T   26204.59992430  .00000140  00000+0  11520-3 0  9999
2 65582  81.3066 337.0898 0009346  94.4135 265.8090 13.83806939 44365
PRAETORIAN SDA_620      
1 65583U 25203U   26204.34931515  .00000176  00000+0  14985-3 0  9997
2 65583  81.3051 337.3598 0008660  92.5802 267.6346 13.83208757 43691
PRAETORIAN SDA_621      
1 65584U 25203V   26204.60177240  .00000082  00000+0  62842-4 0  9996
2 65584  81.3043 337.0179 0008512  89.2208 270.9924 13.83804888 43735
PRAETORIAN SDA_601      
1 65585U 25203W   26204.37206348  .00000232  00000+0  20138-3 0  9991
2 65585  81.3058 337.5683 0006760 106.2598 253.9303 13.83171634 43684
VICTUS HAZE PUMA        
1 69646U 26142A   26204.27102410  .00004214  00000+0  19059-3 0  9994
2 69646  97.4452 101.4820 0026594 237.1743 122.6931 15.21162456  5151
